{
  "type": "FeatureCollection",
  "features": [
    {
      "type": "Feature",
      "properties": {
        "norad_id": 37836,
        "name": "EUTELSAT 16A",
        "group": "eutelsat",
        "lat": 0.008596755993885508,
        "lon": 168.37001804389502,
        "alt_km": 35793.850767953954,
        "timestamp": "2025-12-26T03:50:11.759052+00:00",
        "meta_object_name": "EUTELSAT 16A",
        "meta_object_id": "2011-057A",
        "meta_epoch": "2025-12-25T18:16:42.226176",
        "meta_mean_motion": 1.00271418,
        "meta_eccentricity": 0.0005836,
        "meta_inclination": 0.0558,
        "meta_ra_of_asc_node": 350.9217,
        "meta_arg_of_pericenter": 285.6531,
        "meta_mean_anomaly": 108.1009,
        "meta_ephemeris_type": 0,
        "meta_classification_type": "U",
        "meta_norad_cat_id": 37836,
        "meta_element_set_no": 999,
        "meta_rev_at_epoch": 558,
        "meta_bstar": 0,
        "meta_mean_motion_dot": 1.25e-06,
        "meta_mean_motion_ddot": 0,
        "tle_line1": "1 37836U 11057A   25359.76159984  .00000125  00000+0  00000+0 0  9990",
        "tle_line2": "2 37836   0.0558 350.9217 0005836 285.6531 108.1009  1.00271418  5587"
      },
      "geometry": {
        "type": "Point",
        "coordinates": [
          168.37001804389502,
          0.008596755993885508
        ]
      }
    },
    {
      "type": "Feature",
      "properties": {
        "norad_id": 38992,
        "name": "EUTELSAT 21B",
        "group": "eutelsat",
        "lat": -0.0007187311345603569,
        "lon": 173.9914416491044,
        "alt_km": 35789.80127823249,
        "timestamp": "2025-12-26T03:50:11.759063+00:00",
        "meta_object_name": "EUTELSAT 21B",
        "meta_object_id": "2012-062B",
        "meta_epoch": "2025-12-24T23:28:26.457600",
        "meta_mean_motion": 1.00271068,
        "meta_eccentricity": 0.00032446,
        "meta_inclination": 0.0657,
        "meta_ra_of_asc_node": 349.5129,
        "meta_arg_of_pericenter": 289.9649,
        "meta_mean_anomaly": 187.9548,
        "meta_ephemeris_type": 0,
        "meta_classification_type": "U",
        "meta_norad_cat_id": 38992,
        "meta_element_set_no": 999,
        "meta_rev_at_epoch": 4808,
        "meta_bstar": 0,
        "meta_mean_motion_dot": 1.51e-06,
        "meta_mean_motion_ddot": 0,
        "tle_line1": "1 38992U 12062B   25358.97808400  .00000151  00000+0  00000+0 0  9996",
        "tle_line2": "2 38992   0.0657 349.5129 0003244 289.9649 187.9548  1.00271068 48081"
      },
      "geometry": {
        "type": "Point",
        "coordinates": [
          173.9914416491044,
          -0.0007187311345603569
        ]
      }
    },
    {
      "type": "Feature",
      "properties": {
        "norad_id": 39020,
        "name": "EUTELSAT 70B",
        "group": "eutelsat",
        "lat": -0.06053432468024901,
        "lon": -137.07946838567213,
        "alt_km": 35771.201352081254,
        "timestamp": "2025-12-26T03:50:11.759075+00:00",
        "meta_object_name": "EUTELSAT 70B",
        "meta_object_id": "2012-069A",
        "meta_epoch": "2025-12-25T20:24:57.950208",
        "meta_mean_motion": 1.00272006,
        "meta_eccentricity": 0.0004169,
        "meta_inclination": 0.0615,
        "meta_ra_of_asc_node": 349.1641,
        "meta_arg_of_pericenter": 266.4138,
        "meta_mean_anomaly": 215.7632,
        "meta_ephemeris_type": 0,
        "meta_classification_type": "U",
        "meta_norad_cat_id": 39020,
        "meta_element_set_no": 999,
        "meta_rev_at_epoch": 4777,
        "meta_bstar": 0,
        "meta_mean_motion_dot": -2.2e-07,
        "meta_mean_motion_ddot": 0,
        "tle_line1": "1 39020U 12069A   25359.85067072 -.00000022  00000+0  00000+0 0  9994",
        "tle_line2": "2 39020   0.0615 349.1641 0004169 266.4138 215.7632  1.00272006 47775"
      },
      "geometry": {
        "type": "Point",
        "coordinates": [
          -137.07946838567213,
          -0.06053432468024901
        ]
      }
    },
    {
      "type": "Feature",
      "properties": {
        "norad_id": 39122,
        "name": "EUTELSAT 117 WEST A",
        "group": "eutelsat",
        "lat": 0.024400935654874552,
        "lon": 35.681499428797586,
        "alt_km": 35791.81681862638,
        "timestamp": "2025-12-26T03:50:11.759087+00:00",
        "meta_object_name": "EUTELSAT 117 WEST A",
        "meta_object_id": "2013-012A",
        "meta_epoch": "2025-12-25T15:56:10.681728",
        "meta_mean_motion": 1.00270782,
        "meta_eccentricity": 0.0002791,
        "meta_inclination": 0.0176,
        "meta_ra_of_asc_node": 324.0634,
        "meta_arg_of_pericenter": 314.0111,
        "meta_mean_anomaly": 298.594,
        "meta_ephemeris_type": 0,
        "meta_classification_type": "U",
        "meta_norad_cat_id": 39122,
        "meta_element_set_no": 999,
        "meta_rev_at_epoch": 4669,
        "meta_bstar": 0,
        "meta_mean_motion_dot": 9e-08,
        "meta_mean_motion_ddot": 0,
        "tle_line1": "1 39122U 13012A   25359.66401252  .00000009  00000+0  00000+0 0  9991",
        "tle_line2": "2 39122   0.0176 324.0634 0002791 314.0111 298.5940  1.00270782 46694"
      },
      "geometry": {
        "type": "Point",
        "coordinates": [
          35.681499428797586,
          0.024400935654874552
        ]
      }
    },
    {
      "type": "Feature",
      "properties": {
        "norad_id": 39163,
        "name": "EUTELSAT 7B",
        "group": "eutelsat",
        "lat": 0.04400791443028991,
        "lon": 159.42840599839255,
        "alt_km": 35804.73690962499,
        "timestamp": "2025-12-26T03:50:11.759100+00:00",
        "meta_object_name": "EUTELSAT 7B",
        "meta_object_id": "2013-022A",
        "meta_epoch": "2025-12-25T13:05:49.496064",
        "meta_mean_motion": 1.00271702,
        "meta_eccentricity": 0.0004644,
        "meta_inclination": 0.066,
        "meta_ra_of_asc_node": 10.1189,
        "meta_arg_of_pericenter": 312.1563,
        "meta_mean_anomaly": 335.4778,
        "meta_ephemeris_type": 0,
        "meta_classification_type": "U",
        "meta_norad_cat_id": 39163,
        "meta_element_set_no": 999,
        "meta_rev_at_epoch": 4620,
        "meta_bstar": 0,
        "meta_mean_motion_dot": 6.9e-07,
        "meta_mean_motion_ddot": 0,
        "tle_line1": "1 39163U 13022A   25359.54571176  .00000069  00000+0  00000+0 0  9993",
        "tle_line2": "2 39163   0.0660  10.1189 0004644 312.1563 335.4778  1.00271702 46204"
      },
      "geometry": {
        "type": "Point",
        "coordinates": [
          159.42840599839255,
          0.04400791443028991
        ]
      }
    },
    {
      "type": "Feature",
      "properties": {
        "norad_id": 39612,
        "name": "EXPRESS-AT1",
        "group": "eutelsat",
        "lat": -0.013586776697335243,
        "lon": -151.5435448482578,
        "alt_km": 35786.15300458662,
        "timestamp": "2025-12-26T03:50:11.759112+00:00",
        "meta_object_name": "EXPRESS-AT1",
        "meta_object_id": "2014-010A",
        "meta_epoch": "2025-12-25T13:19:48.156672",
        "meta_mean_motion": 1.0027145,
        "meta_eccentricity": 8.81e-05,
        "meta_inclination": 0.0121,
        "meta_ra_of_asc_node": 301.1676,
        "meta_arg_of_pericenter": 176.9895,
        "meta_mean_anomaly": 232.1025,
        "meta_ephemeris_type": 0,
        "meta_classification_type": "U",
        "meta_norad_cat_id": 39612,
        "meta_element_set_no": 999,
        "meta_rev_at_epoch": 4307,
        "meta_bstar": 0,
        "meta_mean_motion_dot": 1e-06,
        "meta_mean_motion_ddot": 0,
        "tle_line1": "1 39612U 14010A   25359.55541848  .00000100  00000+0  00000+0 0  9990",
        "tle_line2": "2 39612   0.0121 301.1676 0000881 176.9895 232.1025  1.00271450 43072"
      },
      "geometry": {
        "type": "Point",
        "coordinates": [
          -151.5435448482578,
          -0.013586776697335243
        ]
      }
    },
    {
      "type": "Feature",
      "properties": {
        "norad_id": 39613,
        "name": "EXPRESS-AT2",
        "group": "eutelsat",
        "lat": -0.013192710867141764,
        "lon": -67.68075051970487,
        "alt_km": 35779.65511959993,
        "timestamp": "2025-12-26T03:50:11.759124+00:00",
        "meta_object_name": "EXPRESS-AT2",
        "meta_object_id": "2014-010B",
        "meta_epoch": "2025-12-25T18:52:01.344288",
        "meta_mean_motion": 1.00271606,
        "meta_eccentricity": 0.0001626,
        "meta_inclination": 0.014,
        "meta_ra_of_asc_node": 299.1909,
        "meta_arg_of_pericenter": 334.437,
        "meta_mean_anomaly": 243.7809,
        "meta_ephemeris_type": 0,
        "meta_classification_type": "U",
        "meta_norad_cat_id": 39613,
        "meta_element_set_no": 999,
        "meta_rev_at_epoch": 4276,
        "meta_bstar": 0,
        "meta_mean_motion_dot": -2.6e-06,
        "meta_mean_motion_ddot": 0,
        "tle_line1": "1 39613U 14010B   25359.78612667 -.00000260  00000+0  00000+0 0  9992",
        "tle_line2": "2 39613   0.0140 299.1909 0001626 334.4370 243.7809  1.00271606 42762"
      },
      "geometry": {
        "type": "Point",
        "coordinates": [
          -67.68075051970487,
          -0.013192710867141764
        ]
      }
    }
  ]
}